0 COSMOS 570
1 06681U 73037G   13281.86070128 -.00000026  00000-0 -56491-4 0  9896
2 06681 074.0194 218.8075 0091393 102.2540 313.2209 12.63452933860493
0 COSMOS 570
1 06681U 73037G   13284.16342201 -.00000037  00000-0 -11176-3 0  9900
2 06681 074.0196 215.6677 0091394 098.6711 347.0222 12.63452998860780
0 COSMOS 570
1 06681U 73037G   13286.46812078 -.00000007  00000-0  47656-4 0  9919
2 06681 074.0199 212.5255 0091404 095.0899 029.8173 12.63452855861076
0 COSMOS 570
1 06681U 73037G   13288.52360253  .00000023  00000-0  21168-3 0  9928
2 06681 074.0199 209.7230 0091408 091.8995 019.0585 12.63452609861336
0 COSMOS 570
1 06681U 73037G   13291.14057883  .00000022  00000-0  20546-3 0  9931
2 06681 074.0195 206.1553 0091397 087.8400 042.2203 12.63452716861664
0 COSMOS 570
1 06681U 73037G   13293.19497866  .00000006  00000-0  11759-3 0  9946
2 06681 074.0193 203.3544 0091457 084.6481 026.5410 12.63453021861926
0 COSMOS 570
1 06681U 73037G   13295.49074231 -.00000020  00000-0 -22727-4 0  9955
2 06681 074.0191 200.2244 0091466 081.0830 028.6919 12.63453358862219
